{
  "type": "FeatureCollection",
  "features": [
    {
      "type": "Feature",
      "properties": {
        "norad_id": 30405,
        "name": "FENGYUN 1C DEB",
        "group": "fengyun-1c-debris",
        "lat": -78.69076111594583,
        "lon": -134.78841422260993,
        "alt_km": 834.3370534902706,
        "timestamp": "2025-12-27T19:21:59.026065+00:00",
        "meta_object_name": "FENGYUN 1C DEB",
        "meta_object_id": "1999-025ADU",
        "meta_epoch": "2025-12-27T04:50:18.432672",
        "meta_mean_motion": 14.29035155,
        "meta_eccentricity": 0.00507112,
        "meta_inclination": 98.7926,
        "meta_ra_of_asc_node": 95.309,
        "meta_arg_of_pericenter": 112.6115,
        "meta_mean_anomaly": 277.5827,
        "meta_ephemeris_type": 0,
        "meta_classification_type": "U",
        "meta_norad_cat_id": 30405,
        "meta_element_set_no": 999,
        "meta_rev_at_epoch": 97602,
        "meta_bstar": 0.0018748601,
        "meta_mean_motion_dot": 4.77e-05,
        "meta_mean_motion_ddot": 0,
        "tle_line1": "1 30405U 99025ADU 25361.20160223  .00004770  00000+0  18749-2 0  9998",
        "tle_line2": "2 30405  98.7926  95.3090 0050711 112.6115 277.5827 14.29035155976029"
      },
      "geometry": {
        "type": "Point",
        "coordinates": [
          -134.78841422260993,
          -78.69076111594583
        ]
      }
    },
    {
      "type": "Feature",
      "properties": {
        "norad_id": 30406,
        "name": "FENGYUN 1C DEB",
        "group": "fengyun-1c-debris",
        "lat": 48.989537305650224,
        "lon": -119.3620643498975,
        "alt_km": 1024.0543792532771,
        "timestamp": "2025-12-27T19:21:59.026075+00:00",
        "meta_object_name": "FENGYUN 1C DEB",
        "meta_object_id": "1999-025ADV",
        "meta_epoch": "2025-12-27T11:14:36.587328",
        "meta_mean_motion": 13.59273546,
        "meta_eccentricity": 0.0282739,
        "meta_inclination": 98.6204,
        "meta_ra_of_asc_node": 250.3856,
        "meta_arg_of_pericenter": 321.7531,
        "meta_mean_anomaly": 229.5237,
        "meta_ephemeris_type": 0,
        "meta_classification_type": "U",
        "meta_norad_cat_id": 30406,
        "meta_element_set_no": 999,
        "meta_rev_at_epoch": 93366,
        "meta_bstar": 0.0023726,
        "meta_mean_motion_dot": 2.237e-05,
        "meta_mean_motion_ddot": 0,
        "tle_line1": "1 30406U 99025ADV 25361.46847902  .00002237  00000+0  23726-2 0  9990",
        "tle_line2": "2 30406  98.6204 250.3856 0282739 321.7531 229.5237 13.59273546933668"
      },
      "geometry": {
        "type": "Point",
        "coordinates": [
          -119.3620643498975,
          48.989537305650224
        ]
      }
    },
    {
      "type": "Feature",
      "properties": {
        "norad_id": 30409,
        "name": "FENGYUN 1C DEB",
        "group": "fengyun-1c-debris",
        "lat": 40.96488644923295,
        "lon": -19.25723744495877,
        "alt_km": 851.1670680820007,
        "timestamp": "2025-12-27T19:21:59.026084+00:00",
        "meta_object_name": "FENGYUN 1C DEB",
        "meta_object_id": "1999-025ADY",
        "meta_epoch": "2025-12-27T11:13:07.368096",
        "meta_mean_motion": 14.03780309,
        "meta_eccentricity": 0.0167205,
        "meta_inclination": 98.4743,
        "meta_ra_of_asc_node": 347.8632,
        "meta_arg_of_pericenter": 324.1118,
        "meta_mean_anomaly": 160.9396,
        "meta_ephemeris_type": 0,
        "meta_classification_type": "U",
        "meta_norad_cat_id": 30409,
        "meta_element_set_no": 999,
        "meta_rev_at_epoch": 96636,
        "meta_bstar": 0.00094152,
        "meta_mean_motion_dot": 1.637e-05,
        "meta_mean_motion_ddot": 0,
        "tle_line1": "1 30409U 99025ADY 25361.46744639  .00001637  00000+0  94152-3 0  9991",
        "tle_line2": "2 30409  98.4743 347.8632 0167205 324.1118 160.9396 14.03780309966366"
      },
      "geometry": {
        "type": "Point",
        "coordinates": [
          -19.25723744495877,
          40.96488644923295
        ]
      }
    },
    {
      "type": "Feature",
      "properties": {
        "norad_id": 30411,
        "name": "FENGYUN 1C DEB",
        "group": "fengyun-1c-debris",
        "lat": 59.02983979165285,
        "lon": 106.24614590737691,
        "alt_km": 809.9559474904217,
        "timestamp": "2025-12-27T19:21:59.026094+00:00",
        "meta_object_name": "FENGYUN 1C DEB",
        "meta_object_id": "1999-025AEA",
        "meta_epoch": "2025-12-27T05:09:51.443136",
        "meta_mean_motion": 14.07733088,
        "meta_eccentricity": 0.0123948,
        "meta_inclination": 98.5808,
        "meta_ra_of_asc_node": 271.1125,
        "meta_arg_of_pericenter": 65.8377,
        "meta_mean_anomaly": 295.5695,
        "meta_ephemeris_type": 0,
        "meta_classification_type": "U",
        "meta_norad_cat_id": 30411,
        "meta_element_set_no": 999,
        "meta_rev_at_epoch": 96187,
        "meta_bstar": 0.0018613,
        "meta_mean_motion_dot": 3.339e-05,
        "meta_mean_motion_ddot": 0,
        "tle_line1": "1 30411U 99025AEA 25361.21517874  .00003339  00000+0  18613-2 0  9994",
        "tle_line2": "2 30411  98.5808 271.1125 0123948  65.8377 295.5695 14.07733088961874"
      },
      "geometry": {
        "type": "Point",
        "coordinates": [
          106.24614590737691,
          59.02983979165285
        ]
      }
    },
    {
      "type": "Feature",
      "properties": {
        "norad_id": 30413,
        "name": "FENGYUN 1C DEB",
        "group": "fengyun-1c-debris",
        "lat": 64.19897253891574,
        "lon": -145.71902893339364,
        "alt_km": 786.5318837822633,
        "timestamp": "2025-12-27T19:21:59.026103+00:00",
        "meta_object_name": "FENGYUN 1C DEB",
        "meta_object_id": "1999-025AEC",
        "meta_epoch": "2025-12-27T04:33:12.150144",
        "meta_mean_motion": 14.32695154,
        "meta_eccentricity": 0.00441386,
        "meta_inclination": 102.0623,
        "meta_ra_of_asc_node": 239.6765,
        "meta_arg_of_pericenter": 177.8161,
        "meta_mean_anomaly": 307.9389,
        "meta_ephemeris_type": 0,
        "meta_classification_type": "U",
        "meta_norad_cat_id": 30413,
        "meta_element_set_no": 999,
        "meta_rev_at_epoch": 97346,
        "meta_bstar": 0.0025537817,
        "meta_mean_motion_dot": 6.958e-05,
        "meta_mean_motion_ddot": 0,
        "tle_line1": "1 30413U 99025AEC 25361.18972396  .00006958  00000+0  25538-2 0  9990",
        "tle_line2": "2 30413 102.0623 239.6765 0044138 177.8161 307.9389 14.32695154973464"
      },
      "geometry": {
        "type": "Point",
        "coordinates": [
          -145.71902893339364,
          64.19897253891574
        ]
      }
    },
    {
      "type": "Feature",
      "properties": {
        "norad_id": 30414,
        "name": "FENGYUN 1C DEB",
        "group": "fengyun-1c-debris",
        "lat": -59.27285550508984,
        "lon": -35.79503146725439,
        "alt_km": 787.670751761395,
        "timestamp": "2025-12-27T19:21:59.026112+00:00",
        "meta_object_name": "FENGYUN 1C DEB",
        "meta_object_id": "1999-025AED",
        "meta_epoch": "2025-12-27T09:52:57.569088",
        "meta_mean_motion": 14.34359192,
        "meta_eccentricity": 0.0057605,
        "meta_inclination": 99.0807,
        "meta_ra_of_asc_node": 159.3987,
        "meta_arg_of_pericenter": 146.5349,
        "meta_mean_anomaly": 213.9496,
        "meta_ephemeris_type": 0,
        "meta_classification_type": "U",
        "meta_norad_cat_id": 30414,
        "meta_element_set_no": 999,
        "meta_rev_at_epoch": 97297,
        "meta_bstar": 0.0027672,
        "meta_mean_motion_dot": 7.888e-05,
        "meta_mean_motion_ddot": 0,
        "tle_line1": "1 30414U 99025AED 25361.41177742  .00007888  00000+0  27672-2 0  9993",
        "tle_line2": "2 30414  99.0807 159.3987 0057605 146.5349 213.9496 14.34359192972973"
      },
      "geometry": {
        "type": "Point",
        "coordinates": [
          -35.79503146725439,
          -59.27285550508984
        ]
      }
    },
    {
      "type": "Feature",
      "properties": {
        "norad_id": 30415,
        "name": "FENGYUN 1C DEB",
        "group": "fengyun-1c-debris",
        "lat": 27.088429841225853,
        "lon": 57.082791320100775,
        "alt_km": 1164.6168225285837,
        "timestamp": "2025-12-27T19:21:59.026121+00:00",
        "meta_object_name": "FENGYUN 1C DEB",
        "meta_object_id": "1999-025AEE",
        "meta_epoch": "2025-12-26T15:56:20.965920",
        "meta_mean_motion": 13.68977813,
        "meta_eccentricity": 0.024052,
        "meta_inclination": 99.6456,
        "meta_ra_of_asc_node": 60.9288,
        "meta_arg_of_pericenter": 233.6873,
        "meta_mean_anomaly": 283.6555,
        "meta_ephemeris_type": 0,
        "meta_classification_type": "U",
        "meta_norad_cat_id": 30415,
        "meta_element_set_no": 999,
        "meta_rev_at_epoch": 94068,
        "meta_bstar": 0.00148,
        "meta_mean_motion_dot": 1.518e-05,
        "meta_mean_motion_ddot": 0,
        "tle_line1": "1 30415U 99025AEE 25360.66413155  .00001518  00000+0  14800-2 0  9994",
        "tle_line2": "2 30415  99.6456  60.9288 0240520 233.6873 283.6555 13.68977813940686"
      },
      "geometry": {
        "type": "Point",
        "coordinates": [
          57.082791320100775,
          27.088429841225853
        ]
      }
    }
  ]
}